OBJECT_NAME,OBJECT_ID,EPOCH,MEAN_MOTION,ECCENTRICITY,INCLINATION,RA_OF_ASC_NODE,ARG_OF_PERICENTER,MEAN_ANOMALY,EPHEMERIS_TYPE,CLASSIFICATION_TYPE,NORAD_CAT_ID,ELEMENT_SET_NO,REV_AT_EPOCH,BSTAR,MEAN_MOTION_DOT,MEAN_MOTION_DDOT
STARLINK-37478,2026-117Y,2026-06-10T14:00:01.999872,15.88345226,.00009569,53.1550,276.0522,63.2711,119.9084,0,U,69260,999,311,-.63730895E-2,-.1583106E-1,0
STARLINK-37506,2026-117Z,2026-06-10T14:00:01.999872,15.88621208,.00011363,53.1546,276.0402,62.8065,125.9919,0,U,69261,999,311,-.73130826E-2,-.1805449E-1,0
STARLINK-37503,2026-117AA,2026-06-10T14:00:01.999872,15.88473357,.00009857,53.1549,276.0345,66.5333,124.7669,0,U,69262,999,311,-.74031886E-2,-.1812602E-1,0
STARLINK-37502,2026-117AB,2026-06-10T14:00:01.999872,15.88431491,.0001034,53.1547,276.0293,67.2057,126.3634,0,U,69263,999,311,-.72853027E-2,-.1784702E-1,0
STARLINK-37486,2026-117AC,2026-06-10T14:00:01.999872,15.88211904,.00011026,53.1545,276.0196,65.2022,133.0980,0,U,69264,999,311,-.74643687E-2,-.1804982E-1,0
STARLINK-37435,2026-117AD,2026-06-10T14:00:01.999872,15.87000694,.00009015,53.1549,276.0132,64.1027,136.7572,0,U,69265,999,311,-.78544212E-2,-.1789519E-1,0
STARLINK-37464,2026-117AE,2026-06-10T14:00:01.999872,15.86219563,.00009124,53.1548,275.9949,60.5103,149.0642,0,U,69266,999,311,-.91966314E-2,-.2028074E-1,0
KUIPER-00282,2026-118A,2026-06-10T13:54:47.513376,15.34650259,.00117651,51.8591,85.3936,156.2928,203.8602,0,U,69267,999,296,.30186477E-3,.9941E-4,0
KUIPER-00383,2026-118B,2026-06-10T13:50:31.055712,15.34997448,.00105349,51.8591,85.3744,158.3892,201.7540,0,U,69268,999,296,.43476919E-3,.14655E-3,0
KUIPER-00527,2026-118C,2026-06-10T12:12:35.676000,15.35536412,.00096449,51.8619,85.6705,151.5421,208.6093,0,U,69269,999,295,.14754537E-3,.4796E-4,0
KUIPER-00562,2026-118D,2026-06-10T11:46:56.603424,15.38502537,.00019697,51.8718,85.5470,99.7964,260.3246,0,U,69270,999,295,.50125338E-3,.19E-3,0
KUIPER-00570,2026-118E,2026-06-10T13:49:53.603904,15.35346972,.00116978,51.8579,85.3708,160.8789,199.2638,0,U,69271,999,296,.56041791E-3,.19238E-3,0
KUIPER-00572,2026-118F,2026-06-10T12:04:31.613952,15.36850960,.00073318,51.8677,85.6348,146.1929,213.9526,0,U,69272,999,295,.43517263E-3,.15573E-3,0
KUIPER-00581,2026-118G,2026-06-10T12:07:58.197216,15.36531574,.00088848,51.8654,85.6514,151.1083,209.0397,0,U,69273,999,304,.5087292E-3,.18095E-3,0
KUIPER-00584,2026-118H,2026-06-10T13:52:30.471744,15.35285068,.00110238,51.8605,85.3838,165.2423,194.8887,0,U,69274,999,296,-.44442855E-4,-.1937E-4,0
KUIPER-00587,2026-118J,2026-06-10T12:07:13.796256,15.36513341,.0008366,51.8630,85.6467,152.7720,207.3707,0,U,69275,999,295,.47141775E-3,.16724E-3,0
KUIPER-00590,2026-118K,2026-06-10T11:55:00.581664,15.37735270,.00044266,51.8683,85.5926,133.3477,226.7879,0,U,69276,999,295,.50516567E-3,.18675E-3,0
KUIPER-00592,2026-118L,2026-06-10T10:19:09.637824,15.37968706,.00037771,51.8702,85.8946,111.4415,248.6975,0,U,69277,999,294,.51620608E-3,.19239E-3,0
KUIPER-00593,2026-118M,2026-06-10T11:53:14.923104,15.37863949,.00040811,51.8710,85.5810,128.4524,231.6830,0,U,69278,999,301,.47786181E-3,.17716E-3,0
KUIPER-00594,2026-118N,2026-06-10T11:45:24.188256,15.38473309,.00012304,51.8713,85.5442,67.7479,292.3639,0,U,69279,999,295,.48171173E-3,.18225E-3,0
KUIPER-00595,2026-118P,2026-06-10T11:47:54.470688,15.38364533,.00020315,51.8708,85.5575,111.4875,248.6328,0,U,69280,999,298,.483347E-3,.18222E-3,0
KUIPER-00596,2026-118Q,2026-06-10T13:50:45.825792,15.35465976,.00118849,51.8553,85.3728,159.6491,200.4971,0,U,69281,999,296,.32346516E-3,.1097E-3,0
KUIPER-00597,2026-118R,2026-06-10T12:02:18.036096,15.36923522,.00072022,51.8650,85.6254,144.8991,215.2471,0,U,69282,999,295,.46921833E-3,.16865E-3,0
KUIPER-00599,2026-118S,2026-06-10T12:00:17.595360,15.37222384,.00063943,51.8689,85.6155,138.7029,221.4442,0,U,69283,999,295,.44159679E-3,.16001E-3,0
KUIPER-00600,2026-118T,2026-06-10T07:25:30.927072,15.36626719,.00089164,51.8638,86.5873,146.5363,213.6188,0,U,69284,999,292,.58944182E-3,.21102E-3,0
KUIPER-00601,2026-118U,2026-06-10T08:49:52.697856,15.37541219,.00048991,51.8698,86.2294,131.4768,228.6640,0,U,69285,999,293,.30674103E-3,.11102E-3,0
KUIPER-00602,2026-118V,2026-06-10T11:51:48.705408,15.38000242,.00031706,51.8698,85.5773,121.8249,238.3047,0,U,69286,999,295,.56218258E-3,.21014E-3,0
KUIPER-00603,2026-118W,2026-06-10T08:51:07.884864,15.37400763,.00056206,51.8667,86.2375,134.0998,226.0452,0,U,69287,999,293,.60050242E-3,.22044E-3,0
KUIPER-00605,2026-118X,2026-06-10T12:03:29.172672,15.36949475,.00076731,51.8662,85.6307,141.2352,218.9186,0,U,69288,999,295,.44555241E-3,.16008E-3,0
KUIPER-00606,2026-118Y,2026-06-10T11:55:46.094592,15.37643821,.00047759,51.8694,85.5949,129.1033,231.0379,0,U,69289,999,295,.53617204E-3,.1979E-3,0
